{
"type": "FeatureCollection",
"name": "overlap_poly",
"crs": { "type": "name", "properties": { "name": "urn:ogc:def:crs:OGC::CRS84" } },
"features": [
{"type":"Feature","properties":{"fid":305,"left":800001.95825137105,"bottom":6812736.3528766492,"right":1066668.7492514579,"top":7043676.5682284003,"NUMPOINTS":4.0},"geometry":{"type":"Polygon","coordinates":[[[6.123011774117264,53.420903257509202],[6.711575699772961,52.808972364855123],[7.888703551084353,52.808972364855123],[8.47726747674005,53.420903257509202],[7.888703551084353,54.024002388648491],[6.711575699772961,54.024002388648491],[6.123011774117264,53.420903257509202]]]}}
]
}
